{
  "type": "FeatureCollection",
  "features": [
    {
      "type": "Feature",
      "properties": {
        "norad_id": 41866,
        "name": "GOES 16",
        "group": "weather",
        "lat": 0.006546119771154059,
        "lon": -109.53017118370876,
        "alt_km": 35773.4782500512,
        "timestamp": "2025-12-18T17:50:14.600257+00:00",
        "meta_object_name": "GOES 16",
        "meta_object_id": "2016-071A",
        "meta_epoch": "2025-12-18T05:57:48.202848",
        "meta_mean_motion": 1.0027223,
        "meta_eccentricity": 0.00030412,
        "meta_inclination": 0.07,
        "meta_ra_of_asc_node": 104.7242,
        "meta_arg_of_pericenter": 160.2209,
        "meta_mean_anomaly": 166.9463,
        "meta_ephemeris_type": 0,
        "meta_classification_type": "U",
        "meta_norad_cat_id": 41866,
        "meta_element_set_no": 999,
        "meta_rev_at_epoch": 3328,
        "meta_bstar": 0,
        "meta_mean_motion_dot": -6.6e-07,
        "meta_mean_motion_ddot": 0,
        "tle_line1": "1 41866U 16071A   25352.24847457 -.00000066  00000+0  00000+0 0  9999",
        "tle_line2": "2 41866   0.0700 104.7242 0003041 160.2209 166.9463  1.00272230 33280"
      },
      "geometry": {
        "type": "Point",
        "coordinates": [
          -109.53017118370876,
          0.006546119771154059
        ]
      }
    },
    {
      "type": "Feature",
      "properties": {
        "norad_id": 41882,
        "name": "FENGYUN 4A",
        "group": "weather",
        "lat": 1.1311409548570823,
        "lon": 118.85121488092702,
        "alt_km": 35792.85392440626,
        "timestamp": "2025-12-18T17:50:14.600270+00:00",
        "meta_object_name": "FENGYUN 4A",
        "meta_object_id": "2016-077A",
        "meta_epoch": "2025-12-18T07:02:08.890944",
        "meta_mean_motion": 1.0026727,
        "meta_eccentricity": 0.00045213,
        "meta_inclination": 1.863,
        "meta_ra_of_asc_node": 82.3386,
        "meta_arg_of_pericenter": 143.2457,
        "meta_mean_anomaly": 90.8801,
        "meta_ephemeris_type": 0,
        "meta_classification_type": "U",
        "meta_norad_cat_id": 41882,
        "meta_element_set_no": 999,
        "meta_rev_at_epoch": 3311,
        "meta_bstar": 0,
        "meta_mean_motion_dot": -3.33e-06,
        "meta_mean_motion_ddot": 0,
        "tle_line1": "1 41882U 16077A   25352.29315846 -.00000333  00000+0  00000+0 0  9997",
        "tle_line2": "2 41882   1.8630  82.3386 0004521 143.2457  90.8801  1.00267270 33110"
      },
      "geometry": {
        "type": "Point",
        "coordinates": [
          118.85121488092702,
          1.1311409548570823
        ]
      }
    },
    {
      "type": "Feature",
      "properties": {
        "norad_id": 41884,
        "name": "CYGFM05",
        "group": "weather",
        "lat": 16.403452600582213,
        "lon": 32.82791464098131,
        "alt_km": 425.98198084167507,
        "timestamp": "2025-12-18T17:50:14.600281+00:00",
        "meta_object_name": "CYGFM05",
        "meta_object_id": "2016-078A",
        "meta_epoch": "2025-12-18T05:19:36.403968",
        "meta_mean_motion": 15.47836389,
        "meta_eccentricity": 0.00106938,
        "meta_inclination": 34.9607,
        "meta_ra_of_asc_node": 11.315,
        "meta_arg_of_pericenter": 231.9861,
        "meta_mean_anomaly": 127.9895,
        "meta_ephemeris_type": 0,
        "meta_classification_type": "U",
        "meta_norad_cat_id": 41884,
        "meta_element_set_no": 999,
        "meta_rev_at_epoch": 50061,
        "meta_bstar": 0.00032067776,
        "meta_mean_motion_dot": 0.00017206,
        "meta_mean_motion_ddot": 0,
        "tle_line1": "1 41884U 16078A   25352.22194912  .00017206  00000+0  32068-3 0  9991",
        "tle_line2": "2 41884  34.9607  11.3150 0010693 231.9861 127.9895 15.47836389500613"
      },
      "geometry": {
        "type": "Point",
        "coordinates": [
          32.82791464098131,
          16.403452600582213
        ]
      }
    },
    {
      "type": "Feature",
      "properties": {
        "norad_id": 41885,
        "name": "CYGFM04",
        "group": "weather",
        "lat": -17.468592178939023,
        "lon": -44.285915427455905,
        "alt_km": 413.1205780917526,
        "timestamp": "2025-12-18T17:50:14.600292+00:00",
        "meta_object_name": "CYGFM04",
        "meta_object_id": "2016-078B",
        "meta_epoch": "2025-12-18T07:09:24.953472",
        "meta_mean_motion": 15.50589221,
        "meta_eccentricity": 0.00097928,
        "meta_inclination": 34.9357,
        "meta_ra_of_asc_node": 345.4318,
        "meta_arg_of_pericenter": 257.8663,
        "meta_mean_anomaly": 102.0962,
        "meta_ephemeris_type": 0,
        "meta_classification_type": "U",
        "meta_norad_cat_id": 41885,
        "meta_element_set_no": 999,
        "meta_rev_at_epoch": 50080,
        "meta_bstar": 0.00034527159,
        "meta_mean_motion_dot": 0.00020427,
        "meta_mean_motion_ddot": 0,
        "tle_line1": "1 41885U 16078B   25352.29820548  .00020427  00000+0  34527-3 0  9991",
        "tle_line2": "2 41885  34.9357 345.4318 0009792 257.8663 102.0962 15.50589221500802"
      },
      "geometry": {
        "type": "Point",
        "coordinates": [
          -44.285915427455905,
          -17.468592178939023
        ]
      }
    },
    {
      "type": "Feature",
      "properties": {
        "norad_id": 41886,
        "name": "CYGFM02",
        "group": "weather",
        "lat": 6.571498480029449,
        "lon": -9.744967272713788,
        "alt_km": 411.4434306417743,
        "timestamp": "2025-12-18T17:50:14.600302+00:00",
        "meta_object_name": "CYGFM02",
        "meta_object_id": "2016-078C",
        "meta_epoch": "2025-12-18T06:58:53.234688",
        "meta_mean_motion": 15.51985421,
        "meta_eccentricity": 0.00114494,
        "meta_inclination": 34.9445,
        "meta_ra_of_asc_node": 343.7336,
        "meta_arg_of_pericenter": 257.835,
        "meta_mean_anomaly": 102.109,
        "meta_ephemeris_type": 0,
        "meta_classification_type": "U",
        "meta_norad_cat_id": 41886,
        "meta_element_set_no": 999,
        "meta_rev_at_epoch": 50093,
        "meta_bstar": 0.00035218126,
        "meta_mean_motion_dot": 0.00021929,
        "meta_mean_motion_ddot": 0,
        "tle_line1": "1 41886U 16078C   25352.29089392  .00021929  00000+0  35218-3 0  9992",
        "tle_line2": "2 41886  34.9445 343.7336 0011449 257.8350 102.1090 15.51985421500937"
      },
      "geometry": {
        "type": "Point",
        "coordinates": [
          -9.744967272713788,
          6.571498480029449
        ]
      }
    },
    {
      "type": "Feature",
      "properties": {
        "norad_id": 41887,
        "name": "CYGFM01",
        "group": "weather",
        "lat": 34.844030450867194,
        "lon": 95.78511114159858,
        "alt_km": 420.433998251091,
        "timestamp": "2025-12-18T17:50:14.600313+00:00",
        "meta_object_name": "CYGFM01",
        "meta_object_id": "2016-078D",
        "meta_epoch": "2025-12-18T06:38:03.852672",
        "meta_mean_motion": 15.4842335,
        "meta_eccentricity": 0.00103029,
        "meta_inclination": 34.9437,
        "meta_ra_of_asc_node": 13.2696,
        "meta_arg_of_pericenter": 224.902,
        "meta_mean_anomaly": 135.0869,
        "meta_ephemeris_type": 0,
        "meta_classification_type": "U",
        "meta_norad_cat_id": 41887,
        "meta_element_set_no": 999,
        "meta_rev_at_epoch": 50056,
        "meta_bstar": 0.00032360495,
        "meta_mean_motion_dot": 0.00017724,
        "meta_mean_motion_ddot": 0,
        "tle_line1": "1 41887U 16078D   25352.27643348  .00017724  00000+0  32360-3 0  9991",
        "tle_line2": "2 41887  34.9437  13.2696 0010302 224.9020 135.0869 15.48423350500565"
      },
      "geometry": {
        "type": "Point",
        "coordinates": [
          95.78511114159858,
          34.844030450867194
        ]
      }
    },
    {
      "type": "Feature",
      "properties": {
        "norad_id": 41888,
        "name": "CYGFM08",
        "group": "weather",
        "lat": 10.703220182082852,
        "lon": 157.4336898201211,
        "alt_km": 415.2456120953266,
        "timestamp": "2025-12-18T17:50:14.600324+00:00",
        "meta_object_name": "CYGFM08",
        "meta_object_id": "2016-078E",
        "meta_epoch": "2025-12-18T07:52:06.055968",
        "meta_mean_motion": 15.49644316,
        "meta_eccentricity": 0.00119901,
        "meta_inclination": 34.9468,
        "meta_ra_of_asc_node": 355.8593,
        "meta_arg_of_pericenter": 248.1294,
        "meta_mean_anomaly": 111.8153,
        "meta_ephemeris_type": 0,
        "meta_classification_type": "U",
        "meta_norad_cat_id": 41888,
        "meta_element_set_no": 999,
        "meta_rev_at_epoch": 50080,
        "meta_bstar": 0.00034164121,
        "meta_mean_motion_dot": 0.00019559,
        "meta_mean_motion_ddot": 0,
        "tle_line1": "1 41888U 16078E   25352.32784787  .00019559  00000+0  34164-3 0  9993",
        "tle_line2": "2 41888  34.9468 355.8593 0011990 248.1294 111.8153 15.49644316500809"
      },
      "geometry": {
        "type": "Point",
        "coordinates": [
          157.4336898201211,
          10.703220182082852
        ]
      }
    }
  ]
}